[{"OBJECT_NAME":"FLOCK 4G-13","OBJECT_ID":"2025-009N","EPOCH":"2026-03-09T16:57:12.071808","MEAN_MOTION":15.32770015,"ECCENTRICITY":0.0003801,"INCLINATION":97.4019,"RA_OF_ASC_NODE":151.0918,"ARG_OF_PERICENTER":292.7207,"MEAN_ANOMALY":67.3633,"EPHEMERIS_TYPE":0,"CLASSIFICATION_TYPE":"U","NORAD_CAT_ID":62621,"ELEMENT_SET_NO":999,"REV_AT_EPOCH":6370,"BSTAR":0.0016695386,"MEAN_MOTION_DOT":0.00053076,"MEAN_MOTION_DDOT":0},{"OBJECT_NAME":"STARLINK-35004","OBJECT_ID":"2025-192AA","EPOCH":"2026-03-09T16:58:55.830432","MEAN_MOTION":15.3019078,"ECCENTRICITY":0.0001299,"INCLINATION":53.1586,"RA_OF_ASC_NODE":232.4959,"ARG_OF_PERICENTER":99.7112,"MEAN_ANOMALY":260.4035,"EPHEMERIS_TYPE":0,"CLASSIFICATION_TYPE":"U","NORAD_CAT_ID":65428,"ELEMENT_SET_NO":999,"REV_AT_EPOCH":2938,"BSTAR":0.00045040813,"MEAN_MOTION_DOT":0.00013,"MEAN_MOTION_DDOT":0}]
